STARLINK-36912          
1 67961U 26038A   26075.84871376  .00074716  00000+0  49694-3 0  9991
2 67961  97.2851  86.5046 0002003  88.3223 271.8271 15.75211131  4316
STARLINK-36881          
1 67962U 26038B   26075.84765314  .00040886  00000+0  27367-3 0  9990
2 67962  97.2852  86.5066 0001260  92.8940 267.2470 15.75190320  4316
STARLINK-36357          
1 67963U 26038C   26075.83335647 -.02287406  00000+0 -20221-1 0  9997
2 67963  97.2850  86.4978 0001746  89.6573 198.0081 15.72061725  4346
STARLINK-36349          
1 67964U 26038D   26075.83335647 -.02286035  00000+0 -20169-1 0  9996
2 67964  97.2848  86.4943 0001733  86.8176 192.9475 15.72105989  4341
STARLINK-36806          
1 67965U 26038E   26075.84447905  .00060428  00000+0  40311-3 0  9994
2 67965  97.2859  86.5096 0001147 100.1899 259.9496 15.75192183  4314
STARLINK-36820          
1 67966U 26038F   26075.84342179  .00204021  00000+0  13336-2 0  9997
2 67966  97.2854  86.5111 0001631 122.4663 237.6760 15.75235686  4315
STARLINK-36819          
1 67967U 26038G   26075.83335647 -.02235397  00000+0 -33935-1 0  9999
2 67967  97.2840  86.4672 0002043  84.6576 118.7334 15.57890367  4344
STARLINK-36812          
1 67968U 26038H   26075.83335647  .00023311  00000+0  15688-3 0  9994
2 67968  97.2864  86.5055 0001533  79.2595 235.8650 15.75166667  4342
STARLINK-36709          
1 67969U 26038J   26075.83335647  .00025315  00000+0  17026-3 0  9999
2 67969  97.2865  86.5111 0001201  69.5194 259.6051 15.75166994  4348
STARLINK-36319          
1 67970U 26038K   26075.83335647 -.02299542  00000+0 -19173-1 0  9993
2 67970  97.2856  86.5090 0001517  94.5347 227.5078 15.73448360  4312
STARLINK-36710          
1 67971U 26038L   26075.83335647 -.00068830  00000+0 -46387-3 0  9995
2 67971  97.2866  86.5162 0001396  87.7227 251.3902 15.75211862  4341
STARLINK-36894          
1 67972U 26038M   26075.83335647 -.00044505  00000+0 -29874-3 0  9991
2 67972  97.2871  86.5176 0001381  57.5645 287.5396 15.75214434  4342
STARLINK-36900          
1 67973U 26038N   26075.83335647 -.02317208  00000+0 -29263-1 0  9997
2 67973  97.2840  86.5046 0001635  96.8595 205.8216 15.62802298  4348
STARLINK-36901          
1 67974U 26038P   26075.83335647 -.00077419  00000+0 -52221-3 0  9995
2 67974  97.2868  86.5189 0001267  80.7056 270.3995 15.75219951  4345
STARLINK-36883          
1 67975U 26038Q   26075.83335647 -.01113896  00000+0 -82042-2 0  9990
2 67975  97.2873  86.5328 0001602  44.6975 342.3467 15.75558542  4345
STARLINK-36880          
1 67976U 26038R   26075.83335647 -.02249230  00000+0 -32678-1 0  9993
2 67976  97.2842  86.4944 0001886  90.6482 182.6551 15.59072290  4345
STARLINK-36904          
1 67977U 26038S   26075.83335647 -.01372568  00000+0 -10142-1 0  9996
2 67977  97.2874  86.5288 0001361  98.6779 280.3639 15.75613287  4346
