[{"OBJECT_NAME":"STARLINK-36912","OBJECT_ID":"2026-038A","EPOCH":"2026-03-16T20:22:08.868864","MEAN_MOTION":15.75211131,"ECCENTRICITY":0.0002003,"INCLINATION":97.2851,"RA_OF_ASC_NODE":86.5046,"ARG_OF_PERICENTER":88.3223,"MEAN_ANOMALY":271.8271,"EPHEMERIS_TYPE":0,"CLASSIFICATION_TYPE":"U","NORAD_CAT_ID":67961,"ELEMENT_SET_NO":999,"REV_AT_EPOCH":431,"BSTAR":0.00049694,"MEAN_MOTION_DOT":0.00074716,"MEAN_MOTION_DDOT":0},{"OBJECT_NAME":"STARLINK-36881","OBJECT_ID":"2026-038B","EPOCH":"2026-03-16T20:20:37.231296","MEAN_MOTION":15.7519032,"ECCENTRICITY":0.000126,"INCLINATION":97.2852,"RA_OF_ASC_NODE":86.5066,"ARG_OF_PERICENTER":92.894,"MEAN_ANOMALY":267.247,"EPHEMERIS_TYPE":0,"CLASSIFICATION_TYPE":"U","NORAD_CAT_ID":67962,"ELEMENT_SET_NO":999,"REV_AT_EPOCH":431,"BSTAR":0.00027367,"MEAN_MOTION_DOT":0.00040886,"MEAN_MOTION_DDOT":0},{"OBJECT_NAME":"STARLINK-36357","OBJECT_ID":"2026-038C","EPOCH":"2026-03-16T20:00:01.999008","MEAN_MOTION":15.72061725,"ECCENTRICITY":0.0001746,"INCLINATION":97.285,"RA_OF_ASC_NODE":86.4978,"ARG_OF_PERICENTER":89.6573,"MEAN_ANOMALY":198.0081,"EPHEMERIS_TYPE":0,"CLASSIFICATION_TYPE":"U","NORAD_CAT_ID":67963,"ELEMENT_SET_NO":999,"REV_AT_EPOCH":434,"BSTAR":-0.020221,"MEAN_MOTION_DOT":-0.02287406,"MEAN_MOTION_DDOT":0},{"OBJECT_NAME":"STARLINK-36349","OBJECT_ID":"2026-038D","EPOCH":"2026-03-16T20:00:01.999008","MEAN_MOTION":15.72105989,"ECCENTRICITY":0.0001733,"INCLINATION":97.2848,"RA_OF_ASC_NODE":86.4943,"ARG_OF_PERICENTER":86.8176,"MEAN_ANOMALY":192.9475,"EPHEMERIS_TYPE":0,"CLASSIFICATION_TYPE":"U","NORAD_CAT_ID":67964,"ELEMENT_SET_NO":999,"REV_AT_EPOCH":434,"BSTAR":-0.020169,"MEAN_MOTION_DOT":-0.02286035,"MEAN_MOTION_DDOT":0},{"OBJECT_NAME":"STARLINK-36806","OBJECT_ID":"2026-038E","EPOCH":"2026-03-16T20:16:02.989920","MEAN_MOTION":15.75192183,"ECCENTRICITY":0.0001147,"INCLINATION":97.2859,"RA_OF_ASC_NODE":86.5096,"ARG_OF_PERICENTER":100.1899,"MEAN_ANOMALY":259.9496,"EPHEMERIS_TYPE":0,"CLASSIFICATION_TYPE":"U","NORAD_CAT_ID":67965,"ELEMENT_SET_NO":999,"REV_AT_EPOCH":431,"BSTAR":0.00040311,"MEAN_MOTION_DOT":0.00060428,"MEAN_MOTION_DDOT":0},{"OBJECT_NAME":"STARLINK-36820","OBJECT_ID":"2026-038F","EPOCH":"2026-03-16T20:14:31.642656","MEAN_MOTION":15.75235686,"ECCENTRICITY":0.0001631,"INCLINATION":97.2854,"RA_OF_ASC_NODE":86.5111,"ARG_OF_PERICENTER":122.4663,"MEAN_ANOMALY":237.676,"EPHEMERIS_TYPE":0,"CLASSIFICATION_TYPE":"U","NORAD_CAT_ID":67966,"ELEMENT_SET_NO":999,"REV_AT_EPOCH":431,"BSTAR":0.0013336,"MEAN_MOTION_DOT":0.00204021,"MEAN_MOTION_DDOT":0},{"OBJECT_NAME":"STARLINK-36819","OBJECT_ID":"2026-038G","EPOCH":"2026-03-16T20:00:01.999008","MEAN_MOTION":15.57890367,"ECCENTRICITY":0.0002043,"INCLINATION":97.284,"RA_OF_ASC_NODE":86.4672,"ARG_OF_PERICENTER":84.6576,"MEAN_ANOMALY":118.7334,"EPHEMERIS_TYPE":0,"CLASSIFICATION_TYPE":"U","NORAD_CAT_ID":67967,"ELEMENT_SET_NO":999,"REV_AT_EPOCH":434,"BSTAR":-0.033935,"MEAN_MOTION_DOT":-0.02235397,"MEAN_MOTION_DDOT":0},{"OBJECT_NAME":"STARLINK-36812","OBJECT_ID":"2026-038H","EPOCH":"2026-03-16T20:00:01.999008","MEAN_MOTION":15.75166667,"ECCENTRICITY":0.0001533,"INCLINATION":97.2864,"RA_OF_ASC_NODE":86.5055,"ARG_OF_PERICENTER":79.2595,"MEAN_ANOMALY":235.865,"EPHEMERIS_TYPE":0,"CLASSIFICATION_TYPE":"U","NORAD_CAT_ID":67968,"ELEMENT_SET_NO":999,"REV_AT_EPOCH":434,"BSTAR":0.00015688,"MEAN_MOTION_DOT":0.00023311,"MEAN_MOTION_DDOT":0},{"OBJECT_NAME":"STARLINK-36709","OBJECT_ID":"2026-038J","EPOCH":"2026-03-16T20:00:01.999008","MEAN_MOTION":15.75166994,"ECCENTRICITY":0.0001201,"INCLINATION":97.2865,"RA_OF_ASC_NODE":86.5111,"ARG_OF_PERICENTER":69.5194,"MEAN_ANOMALY":259.6051,"EPHEMERIS_TYPE":0,"CLASSIFICATION_TYPE":"U","NORAD_CAT_ID":67969,"ELEMENT_SET_NO":999,"REV_AT_EPOCH":434,"BSTAR":0.00017026,"MEAN_MOTION_DOT":0.00025315,"MEAN_MOTION_DDOT":0},{"OBJECT_NAME":"STARLINK-36319","OBJECT_ID":"2026-038K","EPOCH":"2026-03-16T20:00:01.999008","MEAN_MOTION":15.7344836,"ECCENTRICITY":0.0001517,"INCLINATION":97.2856,"RA_OF_ASC_NODE":86.509,"ARG_OF_PERICENTER":94.5347,"MEAN_ANOMALY":227.5078,"EPHEMERIS_TYPE":0,"CLASSIFICATION_TYPE":"U","NORAD_CAT_ID":67970,"ELEMENT_SET_NO":999,"REV_AT_EPOCH":431,"BSTAR":-0.019173,"MEAN_MOTION_DOT":-0.02299542,"MEAN_MOTION_DDOT":0},{"OBJECT_NAME":"STARLINK-36710","OBJECT_ID":"2026-038L","EPOCH":"2026-03-16T20:00:01.999008","MEAN_MOTION":15.75211862,"ECCENTRICITY":0.0001396,"INCLINATION":97.2866,"RA_OF_ASC_NODE":86.5162,"ARG_OF_PERICENTER":87.7227,"MEAN_ANOMALY":251.3902,"EPHEMERIS_TYPE":0,"CLASSIFICATION_TYPE":"U","NORAD_CAT_ID":67971,"ELEMENT_SET_NO":999,"REV_AT_EPOCH":434,"BSTAR":-0.00046387,"MEAN_MOTION_DOT":-0.0006883,"MEAN_MOTION_DDOT":0},{"OBJECT_NAME":"STARLINK-36894","OBJECT_ID":"2026-038M","EPOCH":"2026-03-16T20:00:01.999008","MEAN_MOTION":15.75214434,"ECCENTRICITY":0.0001381,"INCLINATION":97.2871,"RA_OF_ASC_NODE":86.5176,"ARG_OF_PERICENTER":57.5645,"MEAN_ANOMALY":287.5396,"EPHEMERIS_TYPE":0,"CLASSIFICATION_TYPE":"U","NORAD_CAT_ID":67972,"ELEMENT_SET_NO":999,"REV_AT_EPOCH":434,"BSTAR":-0.00029874,"MEAN_MOTION_DOT":-0.00044505,"MEAN_MOTION_DDOT":0},{"OBJECT_NAME":"STARLINK-36900","OBJECT_ID":"2026-038N","EPOCH":"2026-03-16T20:00:01.999008","MEAN_MOTION":15.62802298,"ECCENTRICITY":0.0001635,"INCLINATION":97.284,"RA_OF_ASC_NODE":86.5046,"ARG_OF_PERICENTER":96.8595,"MEAN_ANOMALY":205.8216,"EPHEMERIS_TYPE":0,"CLASSIFICATION_TYPE":"U","NORAD_CAT_ID":67973,"ELEMENT_SET_NO":999,"REV_AT_EPOCH":434,"BSTAR":-0.029263,"MEAN_MOTION_DOT":-0.02317208,"MEAN_MOTION_DDOT":0},{"OBJECT_NAME":"STARLINK-36901","OBJECT_ID":"2026-038P","EPOCH":"2026-03-16T20:00:01.999008","MEAN_MOTION":15.75219951,"ECCENTRICITY":0.0001267,"INCLINATION":97.2868,"RA_OF_ASC_NODE":86.5189,"ARG_OF_PERICENTER":80.7056,"MEAN_ANOMALY":270.3995,"EPHEMERIS_TYPE":0,"CLASSIFICATION_TYPE":"U","NORAD_CAT_ID":67974,"ELEMENT_SET_NO":999,"REV_AT_EPOCH":434,"BSTAR":-0.00052221,"MEAN_MOTION_DOT":-0.00077419,"MEAN_MOTION_DDOT":0},{"OBJECT_NAME":"STARLINK-36883","OBJECT_ID":"2026-038Q","EPOCH":"2026-03-16T20:00:01.999008","MEAN_MOTION":15.75558542,"ECCENTRICITY":0.0001602,"INCLINATION":97.2873,"RA_OF_ASC_NODE":86.5328,"ARG_OF_PERICENTER":44.6975,"MEAN_ANOMALY":342.3467,"EPHEMERIS_TYPE":0,"CLASSIFICATION_TYPE":"U","NORAD_CAT_ID":67975,"ELEMENT_SET_NO":999,"REV_AT_EPOCH":434,"BSTAR":-0.0082042,"MEAN_MOTION_DOT":-0.01113896,"MEAN_MOTION_DDOT":0},{"OBJECT_NAME":"STARLINK-36880","OBJECT_ID":"2026-038R","EPOCH":"2026-03-16T20:00:01.999008","MEAN_MOTION":15.5907229,"ECCENTRICITY":0.0001886,"INCLINATION":97.2842,"RA_OF_ASC_NODE":86.4944,"ARG_OF_PERICENTER":90.6482,"MEAN_ANOMALY":182.6551,"EPHEMERIS_TYPE":0,"CLASSIFICATION_TYPE":"U","NORAD_CAT_ID":67976,"ELEMENT_SET_NO":999,"REV_AT_EPOCH":434,"BSTAR":-0.032678,"MEAN_MOTION_DOT":-0.0224923,"MEAN_MOTION_DDOT":0},{"OBJECT_NAME":"STARLINK-36904","OBJECT_ID":"2026-038S","EPOCH":"2026-03-16T20:00:01.999008","MEAN_MOTION":15.75613287,"ECCENTRICITY":0.0001361,"INCLINATION":97.2874,"RA_OF_ASC_NODE":86.5288,"ARG_OF_PERICENTER":98.6779,"MEAN_ANOMALY":280.3639,"EPHEMERIS_TYPE":0,"CLASSIFICATION_TYPE":"U","NORAD_CAT_ID":67977,"ELEMENT_SET_NO":999,"REV_AT_EPOCH":434,"BSTAR":-0.010142,"MEAN_MOTION_DOT":-0.01372568,"MEAN_MOTION_DDOT":0}]
